NORAD_CAT_ID,OBJECT_NAME,OBJECT_TYPE,EPOCH,MEAN_MOTION,ECCENTRICITY,INCLINATION,RA_OF_ASC_NODE,ARG_OF_PERICENTER,MEAN_ANOMALY,BSTAR,MEAN_MOTION_DOT,MEAN_MOTION_DDOT,TLE_LINE0,TLE_LINE1,TLE_LINE2,SEMIMAJOR_AXIS,PERIOD,APOGEE,PERIGEE,DECAYED
53401.0,STARLINK-4525,PAYLOAD,2023-01-24 18:10:51,15.08847837,0.0001364,53.2171,201.4791,94.8419,265.2729,8.494099999999999e-06,-1.53e-06,0.0,0 STARLINK-4525,1 53401U 22097P   23024.75754628 -.00000153  00000-0  84941-5 0  9999,2 53401  53.2171 201.4791 0001364  94.8419 265.2729 15.08847837 25930,6917.856,95.437,540.665,538.778,0.0
53401.0,STARLINK-4525,PAYLOAD,2023-01-25 14:50:53,15.08842627,0.0001431,53.216,197.6164,83.0284,277.087,-6.6084e-05,-1.34e-05,0.0,0 STARLINK-4525,1 53401U 22097P   23025.61867379 -.00001340  00000-0 -66084-4 0  9990,2 53401  53.2160 197.6164 0001431  83.0284 277.0870 15.08842627 26068,6917.871999999999,95.437,540.727,538.747,0.0
53401.0,STARLINK-4525,PAYLOAD,2023-01-25 18:01:40,15.08814022,0.0001512,53.2164,197.0212,88.6332,271.4833,0.00034802,5.251e-05,0.0,0 STARLINK-4525,1 53401U 22097P   23025.75115841  .00005251  00000-0  34802-3 0  9990,2 53401  53.2164 197.0212 0001512  88.6332 271.4833 15.08814022 26082,6917.96,95.439,540.871,538.779,0.0
53401.0,STARLINK-4525,PAYLOAD,2023-01-25 21:12:25,15.08838927,0.0001511,53.2166,196.4256,83.9463,276.1701,2.0846e-05,4.4e-07,0.0,0 STARLINK-4525,1 53401U 22097P   23025.88363309  .00000044  00000-0  20846-4 0  9997,2 53401  53.2166 196.4256 0001511  83.9463 276.1701 15.08838927 26106,6917.884,95.438,540.794,538.703,0.0
53401.0,STARLINK-4525,PAYLOAD,2023-01-26 14:41:40,15.0883952,0.0001478,53.2166,193.1552,82.9299,277.1861,4.2349e-05,3.86e-06,0.0,0 STARLINK-4525,1 53401U 22097P   23026.61227265  .00000386  00000-0  42349-4 0  9990,2 53401  53.2166 193.1552 0001478  82.9299 277.1861 15.08839520 26701,6917.882,95.438,540.769,538.724,0.0
53401.0,STARLINK-4525,PAYLOAD,2023-01-27 14:32:27,15.08821564,0.0001483,53.2167,188.6943,87.1922,272.92400000000004,0.0002318,3.401e-05,0.0,0 STARLINK-4525,1 53401U 22097P   23027.60587799  .00003401  00000-0  23180-3 0  9993,2 53401  53.2167 188.6943 0001483  87.1922 272.9240 15.08821564 26366,6917.937,95.439,540.828,538.776,0.0
53401.0,STARLINK-4525,PAYLOAD,2023-01-27 16:07:51,15.0881867,0.0001492,53.2168,188.3969,86.3778,273.7385,0.00027101,4.025e-05,0.0,0 STARLINK-4525,1 53401U 22097P   23027.67211905  .00004025  00000-0  27101-3 0  9993,2 53401  53.2168 188.3969 0001492  86.3778 273.7385 15.08818670 26860,6917.946,95.439,540.8430000000001,538.778,0.0
53401.0,STARLINK-4525,PAYLOAD,2023-01-28 11:12:28,15.08839332,0.0001298,53.2167,184.8295,89.3597,270.7544,-5.8366e-05,-1.217e-05,0.0,0 STARLINK-4525,1 53401U 22097P   23028.46699962 -.00001217  00000-0 -58366-4 0  9994,2 53401  53.2167 184.8295 0001298  89.3597 270.7544 15.08839332 26499,6917.882,95.438,540.645,538.849,0.0
53401.0,STARLINK-4525,PAYLOAD,2023-01-28 19:09:24,15.08840993,0.000136,53.2168,183.3427,92.2255,267.8893,5.2538e-05,5.48e-06,0.0,0 STARLINK-4525,1 53401U 22097P   23028.79819450  .00000548  00000-0  52538-4 0  9995,2 53401  53.2168 183.3427 0001360  92.2255 267.8893 15.08840993 27035,6917.877,95.437,540.683,538.802,0.0
53401.0,STARLINK-4525,PAYLOAD,2023-01-29 19:00:11,15.08856472,0.0001464,53.2175,178.8828,96.1489,263.967,-0.00021421,-3.697e-05,0.0,0 STARLINK-4525,1 53401U 22097P   23029.79179400 -.00003697  00000-0 -21421-3 0  9996,2 53401  53.2175 178.8828 0001464  96.1489 263.9670 15.08856472 26694,6917.83,95.437,540.708,538.682,0.0
53401.0,STARLINK-4525,PAYLOAD,2023-01-30 02:57:07,15.08836211,0.000133,53.2179,177.396,88.4998,271.6146,4.4372e-05,4.18e-06,0.0,0 STARLINK-4525,1 53401U 22097P   23030.12300101  .00000418  00000-0  44372-4 0  9996,2 53401  53.2179 177.3960 0001330  88.4998 271.6146 15.08836211 26749,6917.892,95.438,540.677,538.837,0.0
53401.0,STARLINK-4525,PAYLOAD,2023-01-30 10:54:02,15.08838436,0.0001439,53.2176,175.9093,87.8081,272.3076,2.3244e-05,8.2e-07,0.0,0 STARLINK-4525,1 53401U 22097P   23030.45420129  .00000082  00000-0  23244-4 0  9997,2 53401  53.2176 175.9093 0001439  87.8081 272.3076 15.08838436 27284,6917.885,95.438,540.746,538.755,0.0
53401.0,STARLINK-4525,PAYLOAD,2023-01-31 09:09:26,15.08834568,0.0001433,53.2179,171.7468,89.8974,270.2183,9.2037e-05,1.177e-05,0.0,0 STARLINK-4525,1 53401U 22097P   23031.38156165  .00001177  00000-0  92037-4 0  9998,2 53401  53.2179 171.7468 0001433  89.8974 270.2183 15.08834568 26933,6917.897,95.438,540.753,538.771,0.0
53401.0,STARLINK-4525,PAYLOAD,2023-02-01 02:38:40,15.08842898,0.0001447,53.2172,168.4766,84.9577,275.158,6.3025e-05,7.15e-06,0.0,0 STARLINK-4525,1 53401U 22097P   23032.11019654  .00000715  00000-0  63025-4 0  9993,2 53401  53.2172 168.4766 0001447  84.9577 275.1580 15.08842898 27043,6917.872,95.437,540.738,538.736,0.0
53401.0,STARLINK-4525,PAYLOAD,2023-02-01 12:11:00,15.08810795,0.0001338,53.2165,166.6917,97.4397,262.6747,0.0003985,6.055e-05,0.0,0 STARLINK-4525,1 53401U 22097P   23032.50764679  .00006055  00000-0  39850-3 0  9991,2 53401  53.2165 166.6917 0001338  97.4397 262.6747 15.08810795 27105,6917.97,95.439,540.76,538.909,0.0
53401.0,STARLINK-4525,PAYLOAD,2023-02-02 12:01:47,15.08801943,0.0001225,53.2168,162.2298,119.4199,240.6916,0.0004589,7.016e-05,0.0,0 STARLINK-4525,1 53401U 22097P   23033.50124992  .00007016  00000-0  45890-3 0  9999,2 53401  53.2168 162.2298 0001225 119.4199 240.6916 15.08801943 27741,6917.997,95.44,540.709,539.014,0.0
53401.0,STARLINK-4525,PAYLOAD,2023-02-02 13:37:11,15.08799937,0.0001177,53.2172,161.9328,120.3184,239.7925,0.00048977,7.507e-05,0.0,0 STARLINK-4525,1 53401U 22097P   23033.56749141  .00007507  00000-0  48977-3 0  9998,2 53401  53.2172 161.9328 0001177 120.3184 239.7925 15.08799937 27262,6918.003,95.44,540.682,539.054,0.0
53401.0,STARLINK-4525,PAYLOAD,2023-02-03 08:41:48,15.08831592,0.0001186,53.2168,158.3644,112.8682,247.2435,-5.0943e-06,-3.69e-06,0.0,0 STARLINK-4525,1 53401U 22097P   23034.36236647 -.00000369  00000-0 -50943-5 0  9998,2 53401  53.2168 158.3644 0001186 112.8682 247.2435 15.08831592 27384,6917.906,95.438,540.592,538.951,0.0
53401.0,STARLINK-4525,PAYLOAD,2023-02-03 18:14:06,15.08837598,0.0001247,53.2173,156.5814,113.4399,246.6724,4.8473e-05,4.84e-06,0.0,0 STARLINK-4525,1 53401U 22097P   23034.75980210  .00000484  00000-0  48473-4 0  9993,2 53401  53.2173 156.5814 0001247 113.4399 246.6724 15.08837598 27442,6917.888,95.438,540.615,538.89,0.0
53401.0,STARLINK-4525,PAYLOAD,2023-02-04 13:18:44,15.08838508,0.0001094,53.2165,153.0136,108.5899,251.5212,6.5266e-05,7.51e-06,0.0,0 STARLINK-4525,1 53401U 22097P   23035.55468331  .00000751  00000-0  65266-4 0  9993,2 53401  53.2165 153.0136 0001094 108.5899 251.5212 15.08838508 28059,6917.885,95.438,540.507,538.993,0.0
53401.0,STARLINK-4525,PAYLOAD,2023-02-04 18:04:53,15.08848218,0.0001288,53.2168,152.1212,111.6216,248.4914,2.7847e-05,1.55e-06,0.0,0 STARLINK-4525,1 53401U 22097P   23035.75339852  .00000155  00000-0  27847-4 0  9991,2 53401  53.2168 152.1212 0001288 111.6216 248.4914 15.08848218 28086,6917.855,95.437,540.611,538.829,0.0
53401.0,STARLINK-4525,PAYLOAD,2023-02-05 00:26:27,15.08830647,0.0001183,53.2158,150.9318,91.5946,268.5182,3.3057e-05,2.38e-06,0.0,0 STARLINK-4525,1 53401U 22097P   23036.01837079  .00000238  00000-0  33057-4 0  9997,2 53401  53.2158 150.9318 0001183  91.5946 268.5182 15.08830647 27635,6917.909,95.438,540.592,538.956,0.0
53401.0,STARLINK-4525,PAYLOAD,2023-02-05 13:09:32,15.08834797,0.0001307,53.2169,148.5531,98.238,261.876,-4.4936e-06,-3.59e-06,0.0,0 STARLINK-4525,1 53401U 22097P   23036.54829273 -.00000359  00000-0 -44936-5 0  9997,2 53401  53.2169 148.5531 0001307  98.2380 261.8760 15.08834797 28203,6917.896,95.438,540.665,538.857,0.0
53401.0,STARLINK-4525,PAYLOAD,2023-02-05 17:55:41,15.08841089,0.0001197,53.2168,147.6605,89.9466,270.1663,3.8122e-05,3.19e-06,0.0,0 STARLINK-4525,1 53401U 22097P   23036.74700781  .00000319  00000-0  38122-4 0  9994,2 53401  53.2168 147.6605 0001197  89.9466 270.1663 15.08841089 27748,6917.877,95.437,540.57,538.914,0.0
53401.0,STARLINK-4525,PAYLOAD,2023-02-06 13:00:18,15.08847844,0.0001206,53.2168,144.0908,89.9595,270.1535,5.2658e-05,5.5e-06,0.0,0 STARLINK-4525,1 53401U 22097P   23037.54188327  .00000550  00000-0  52658-4 0  9996,2 53401  53.2168 144.0908 0001206  89.9595 270.1535 15.08847844 28350,6917.856,95.437,540.556,538.887,0.0
53401.0,STARLINK-4525,PAYLOAD,2023-02-06 16:11:03,15.08861134,0.0001155,53.2174,143.4963,89.7805,270.3319,0.00014554,2.03e-05,0.0,0 STARLINK-4525,1 53401U 22097P   23037.67435181  .00002030  00000-0  14554-3 0  9990,2 53401  53.2174 143.4963 0001155  89.7805 270.3319 15.08861134 27883,6917.816,95.436,540.48,538.882,0.0
53401.0,STARLINK-4525,PAYLOAD,2023-02-07 06:29:33,15.08838371,0.0001702,53.2176,140.8217,81.1969,278.9216,0.00013667,1.888e-05,0.0,0 STARLINK-4525,1 53401U 22097P   23038.27052718  .00001888  00000-0  13667-3 0  9992,2 53401  53.2176 140.8217 0001702  81.1969 278.9216 15.08838371 27970,6917.885,95.438,540.928,538.573,0.0
53401.0,STARLINK-4525,PAYLOAD,2023-02-07 12:51:05,15.08866423,0.0001148,53.2157,139.6342,62.6611,297.4498,-0.00021622,-3.73e-05,0.0,0 STARLINK-4525,1 53401U 22097P   23038.53547646 -.00003730  00000-0 -21622-3 0  9990,2 53401  53.2157 139.6342 0001148  62.6611 297.4498 15.08866423 28019,6917.8,95.436,540.459,538.87,0.0
53401.0,STARLINK-4525,PAYLOAD,2023-02-08 06:20:20,15.08841091,0.0001934,53.2175,136.3602,105.0515,255.0692,3.2003e-06,-2.37e-06,0.0,0 STARLINK-4525,1 53401U 22097P   23039.26412651 -.00000237  00000-0  32003-5 0  9993,2 53401  53.2175 136.3602 0001934 105.0515 255.0692 15.08841091 28122,6917.877,95.437,541.08,538.404,0.0
53401.0,STARLINK-4525,PAYLOAD,2023-02-08 12:41:52,15.0884693,0.0001313,53.2175,135.1717,107.884,252.2295,-2.8648e-05,-7.44e-06,0.0,0 STARLINK-4525,1 53401U 22097P   23039.52908258 -.00000744  00000-0 -28648-4 0  9998,2 53401  53.2175 135.1717 0001313 107.8840 252.2295 15.08846930 28651,6917.859,95.437,540.633,538.816,0.0
